ONEWEB-0678             
1 56714U 23068E   23345.76774142 -.00000177  00000+0 -50351-3 0  9990
2 56714  87.9014  81.9857 0001842 116.3320 243.7999 13.15547834 28535
ONEWEB-0679             
1 56715U 23068F   23345.91668981 -.00836434  00000+0 -26337+0 0  9997
2 56715  86.9160  56.8209 0013732 216.8860 126.7904 14.43182680  5734
ONEWEB-0680             
1 56716U 23068G   23345.91668981  .00000013  00000+0  00000+0 0  9991
2 56716  87.9346  66.8157 0002636  97.8896  50.1692 13.24113240 30480
ONEWEB-0681             
1 56717U 23068H   23345.91668981 -.00034961  00000+0 -77632-1 0  9990
2 56717  87.9481  66.8032 0000646 321.1416  49.7447 13.27906634 30474
ONEWEB-0682             
1 56718U 23068J   23345.80658387  .00000161  00000+0  39301-3 0  9994
2 56718  87.9010  82.0313 0002088  92.2122 267.9247 13.15541986 28704
ONEWEB-0683             
1 56719U 23068K   23345.81609598  .00000112  00000+0  26383-3 0  9998
2 56719  87.9010  81.9976 0001959 100.0718 260.0633 13.15547140 28670
ONEWEB-0684             
1 56720U 23068L   23345.82313413  .00000073  00000+0  16102-3 0  9993
2 56720  87.9011  82.0707 0001990 121.4662 238.6663 13.15550670 28505
ONEWEB-0686             
1 56721U 23068M   23345.91668981 -.00839510  00000+0 -26704+0 0  9990
2 56721  86.9164  56.7706 0012298 220.1843 317.8494 14.42703428 31151
